STARLINK-6061           
1 56795U 23078AE  26070.25002315 -.00033185  00000+0 -27848-2 0  9997
2 56795  70.0014 320.3515 0003035 274.4538   7.3213 14.98354840  5758
STARLINK-6049           
1 56796U 23078AF  26070.06434834  .00001540  00000+0  13684-3 0  9994
2 56796  70.0003 341.0932 0002701 271.0504  89.0345 14.98328917152881
STARLINK-6058           
1 56797U 23078AG  26070.14362691  .00001902  00000+0  16716-3 0  9996
2 56797  70.0001 340.9616 0002502 270.4166  89.6707 14.98336015152890
STARLINK-5953           
1 56799U 23078AJ  26070.05181733 -.00004344  00000+0 -35621-3 0  9995
2 56799  70.0005 341.0452 0001942 262.4984  97.5954 14.98361989152881
STARLINK-6036           
1 56800U 23078AK  26070.05599698  .00001347  00000+0  12066-3 0  9997
2 56800  70.0006 341.0643 0002810 263.0384  97.0456 14.98333135152887
STARLINK-6087           
1 56801U 23078AL  26070.07245457  .00002002  00000+0  17556-3 0  9999
2 56801  70.0006 320.8481 0002502 270.9580  89.1292 14.98332486153380
STARLINK-6070           
1 56802U 23078AM  26070.25002315  .00074844  00000+0  21067-2 0  9998
2 56802  70.0004 318.3783 0003547 289.6857 346.0555 15.36076122  5704
STARLINK-6029           
1 56803U 23078AN  26070.17699506  .00001669  00000+0  14763-3 0  9995
2 56803  70.0008 340.6819 0002841 268.2348  91.8485 14.98331548152906
STARLINK-6069           
1 56804U 23078AP  26070.14755224  .00000628  00000+0  60432-4 0  9992
2 56804  70.0000 320.7107 0002763 258.8918 101.1931 14.98331792154060
STARLINK-6064           
1 56805U 23078AQ  26070.08497060  .00000679  00000+0  64731-4 0  9999
2 56805  69.9997 320.8919 0002640 265.4883  94.5974 14.98331304153389
STARLINK-6072           
1 56806U 23078AR  26070.25002315 -.00049826  00000+0 -41944-2 0  9992
2 56806  69.9999 300.3662 0002807 271.1467 102.7513 14.98361848  5717
STARLINK-6073           
1 56807U 23078AS  26070.13085840  .00005634  00000+0  47934-3 0  9997
2 56807  70.0018 320.6502 0002844 267.9406  92.1427 14.98350038153391
STARLINK-6042           
1 56808U 23078AT  26069.93627354  .00000624  00000+0  60095-4 0  9994
2 56808  69.9987 271.3953 0001900 255.0731 105.0218 14.98333915154609
STARLINK-6040           
1 56809U 23078AU  26070.15612339  .00001685  00000+0  14895-3 0  9992
2 56809  70.0006 340.6093 0002703 271.8240  88.2609 14.98335627152902
STARLINK-6031           
1 56810U 23078AV  26070.17282059  .00001371  00000+0  12265-3 0  9999
2 56810  70.0009 340.6671 0002631 271.4604  88.6254 14.98332502152908
STARLINK-6063           
1 56811U 23078AW  26070.28885907  .00037629  00000+0  48509-3 0  9998
2 56811  70.0007 291.2755 0003492 256.1114 103.9688 15.58824967154130
STARLINK-6065           
1 56812U 23078AX  26070.07260997  .00000965  00000+0  88614-4 0  9997
2 56812  70.0004 320.8567 0002731 259.7397 100.3454 14.98331360153386
STARLINK-6056           
1 56813U 23078AY  26070.15213906 -.00001069  00000+0 -81903-4 0  9997
2 56813  70.0008 340.5965 0002238 271.6104  88.4798 14.98310828152903
STARLINK-6059           
1 56814U 23078AZ  26070.16029822  .00001824  00000+0  16058-3 0  9996
2 56814  70.0007 340.6236 0002822 270.5403  89.5432 14.98333802152908
STARLINK-6067           
1 56816U 23078BB  26070.05991107 -.00007101  00000+0 -58735-3 0  9994
2 56816  70.0000 320.8040 0002303 272.4495  87.6400 14.98372745153388
STARLINK-6028           
1 56818U 23078BD  26070.15195357  .00007082  00000+0  60052-3 0  9991
2 56818  70.0021 340.5934 0002907 266.9199  93.1627 14.98341229153592
STARLINK-30119          
1 56823U 23079A   26070.25002315  .01221169  00000+0  49124-1 0  9990
2 56823  43.0003  98.0524 0001217 270.1398 284.1729 15.21240902  5773
STARLINK-30120          
1 56824U 23079B   26070.25002315  .01220834  00000+0  50791-1 0  9991
2 56824  43.0006  98.1823 0000998 267.3591 231.1768 15.20084054  5776
STARLINK-30084          
1 56825U 23079C   26070.25002315  .01194046  00000+0  42347-1 0  9995
2 56825  42.9997  97.4983 0000900 281.6837 146.0393 15.25569289  5724
STARLINK-30114          
1 56826U 23079D   26070.25002315  .01230455  00000+0  47383-1 0  9996
2 56826  43.0006  97.9217 0001185 267.0928 262.0672 15.22707577  5784
STARLINK-30151          
1 56827U 23079E   26070.25002315  .01217538  00000+0  51149-1 0  9999
2 56827  42.9999  98.0297 0001367 257.1930 303.6937 15.19757550  5776
STARLINK-30152          
1 56828U 23079F   26070.25002315  .01160491  00000+0  46444-1 0  9997
2 56828  42.9988  97.8419 0001842 263.0428  19.2197 15.21571072  5420
STARLINK-30128          
1 56832U 23079K   26070.25002315  .01233829  00000+0  53562-1 0  9997
2 56832  43.0007  72.1910 0001813 285.4625  31.7248 15.18579834  5433
STARLINK-30131          
1 56833U 23079L   26070.25002315  .01282579  00000+0  54700-1 0  9999
2 56833  43.0003  72.1706 0001850 302.8679  90.9661 15.19561885  5789
STARLINK-30069          
1 56834U 23079M   26070.09899687  .00001366  00000+0  60596-4 0  9993
2 56834  43.0031  95.6866 0001569 286.6455  73.4224 15.26750592153144
STARLINK-30144          
1 56835U 23079N   26069.12130918  .00017589  00000+0  65490-3 0  9992
2 56835  42.9963 101.2525 0000532 260.5300  99.5492 15.27187797152992
STARLINK-30142          
1 56836U 23079P   26070.11090605  .00002367  00000+0  95464-4 0  9995
2 56836  42.9988  95.7787 0000706 260.2378  99.8393 15.27589983153146
STARLINK-30133          
1 56837U 23079Q   26070.25002315  .00890793  00000+0  33521-1 0  9993
2 56837  43.0018  97.5160 0001100 246.8754 169.1338 15.23938443  5775
STARLINK-30123          
1 56838U 23079R   26070.24245148  .00001939  00000+0  79943-4 0  9993
2 56838  43.0040  25.1683 0000896 259.1383 100.9368 15.27586215153987
STARLINK-30076          
1 56839U 23079S   26070.25002315  .01201910  00000+0  51362-1 0  9996
2 56839  42.9998  97.8905 0001369 247.5945   7.2431 15.19206693  5720
STARLINK-30073          
1 56840U 23079T   26070.25002315 -.00022160  00000+0 -79804-3 0  9990
2 56840  43.0025 283.5602 0002043 274.7211  35.6908 15.27583016  5888
STARLINK-30078          
1 56841U 23079U   26070.03158925 -.00000780  00000+0 -18835-4 0  9998
2 56841  43.0004  51.7852 0001125 253.0151 107.0577 15.27588661153657
STARLINK-30135          
1 56842U 23079V   26070.25002315  .01221230  00000+0  49352-1 0  9993
2 56842  43.0007  98.1150 0001178 295.1630 191.1971 15.21083421  5739
STARLINK-30137          
1 56843U 23079W   26070.25002315  .00877822  00000+0  34365-1 0  9995
2 56843  43.0017  97.8070 0001530 281.1068 336.0804 15.22640487  5726
STARLINK-30136          
1 56844U 23079X   26070.25002315  .00614730  00000+0  25612-1 0  9998
2 56844  43.0026  97.9929 0001767 276.2495 259.8628 15.20593466  5685
STARLINK-6206           
1 56876U 23083A   26070.00480461  .00000338  00000+0  40092-4 0  9998
2 56876  43.0032  75.0259 0001349 269.2366  90.8322 15.02538193151867
STARLINK-6209           
1 56877U 23083B   26070.06350230  .00000746  00000+0  70243-4 0  9999
2 56877  43.0038  74.6053 0001341 262.7859  97.2831 15.02545872151877
STARLINK-6182           
1 56878U 23083C   26070.00369883  .00000546  00000+0  55503-4 0  9998
2 56878  43.0031  75.0172 0001269 264.3426  95.7271 15.02536073151868
STARLINK-5707           
1 56879U 23083D   26070.06684199  .00001383  00000+0  11743-3 0  9992
2 56879  43.0029  74.6306 0001321 261.6794  98.3899 15.02535754151878
STARLINK-6177           
1 56880U 23083E   26070.31610619 -.00001122  00000+0 -67983-4 0  9999
2 56880  43.0030  73.0631 0001116 270.6391  89.4323 15.02546172151915
STARLINK-5853           
1 56881U 23083F   26070.06462293  .00000634  00000+0  62019-4 0  9995
2 56881  43.0028  74.6131 0001081 269.4538  90.6181 15.02537242151874
STARLINK-6175           
1 56882U 23083G   26070.05130267  .00000548  00000+0  55638-4 0  9991
2 56882  43.0037  74.5119 0001300 267.4522  92.6172 15.02539725151875
STARLINK-6171           
1 56883U 23083H   26070.06129462  .00001177  00000+0  10221-3 0  9995
2 56883  43.0001  74.5874 0000973 292.3121  67.7618 15.02534392151875
STARLINK-5515           
1 56884U 23083J   26070.31054921  .00000955  00000+0  85740-4 0  9993
2 56884  43.0040  73.0167 0001034 272.2770  87.7954 15.02543619151916
STARLINK-5095           
1 56885U 23083K   26070.05769253  .00033301  00000+0  24518-2 0  9991
2 56885  43.0013  74.5587 0001262 294.9930  65.0781 15.02793319151877
STARLINK-5496           
1 56886U 23083L   26070.04301043  .00057460  00000+0  41832-2 0  9990
2 56886  43.0024  74.4505 0001412 279.7174  80.3509 15.02990172151871
STARLINK-6180           
1 56887U 23083M   26070.31388921  .00000197  00000+0  29628-4 0  9997
2 56887  43.0036  73.0397 0001297 267.8477  92.2216 15.02532500151913
STARLINK-6181           
1 56888U 23083N   26070.29614961  .00001430  00000+0  12095-3 0  9991
2 56888  43.0035  72.9084 0001369 271.8785  88.1900 15.02525671151916
STARLINK-6169           
1 56889U 23083P   26070.30609367  .00004490  00000+0  34700-3 0  9994
2 56889  43.0093  72.9870 0002237 276.6556  83.4032 15.02564209151912
STARLINK-5528           
1 56890U 23083Q   26070.03133436 -.00000034  00000+0  12545-4 0  9990
2 56890  43.0030  74.3620 0000936 293.5389  66.5355 15.02532520151876
STARLINK-6213           
1 56891U 23083R   26070.30278015  .00001505  00000+0  12642-3 0  9994
2 56891  43.0025  72.9586 0001667 288.3630  71.7031 15.02542583151913
STARLINK-6219           
1 56892U 23083S   26070.02355521  .00000806  00000+0  74760-4 0  9995
2 56892  43.0020  74.3005 0001355 275.4661  84.6027 15.02536866151876
STARLINK-6216           
1 56893U 23083T   26070.29948636 -.00002746  00000+0 -18839-3 0  9991
2 56893  43.0041  72.9353 0001262 267.7370  92.3328 15.02509922152030
STARLINK-6144           
1 56894U 23083U   26070.29059034  .00003749  00000+0  29245-3 0  9992
2 56894  43.0022  72.8657 0001196 280.8079  79.2628 15.02535091152037
STARLINK-6208           
1 56895U 23083V   26070.28725292  .00006324  00000+0  48311-3 0  9995
2 56895  43.0041  72.8425 0001025 263.3193  96.7533 15.02509537151917
